{
  "type": "FeatureCollection",
  "features": [
    {
      "type": "Feature",
      "properties": {
        "norad_id": 31773,
        "name": "FENGYUN 1C DEB",
        "group": "fengyun-1c-debris",
        "lat": -32.2278475482226,
        "lon": -14.211723402265953,
        "alt_km": 683.0239958576285,
        "timestamp": "2025-12-14T22:38:41.042088+00:00",
        "meta_object_name": "FENGYUN 1C DEB",
        "meta_object_id": "1999-025CFY",
        "meta_epoch": "2025-12-13T17:26:47.796576",
        "meta_mean_motion": 14.72880155,
        "meta_eccentricity": 0.00392223,
        "meta_inclination": 98.9496,
        "meta_ra_of_asc_node": 338.7474,
        "meta_arg_of_pericenter": 175.2061,
        "meta_mean_anomaly": 184.9527,
        "meta_ephemeris_type": 0,
        "meta_classification_type": "U",
        "meta_norad_cat_id": 31773,
        "meta_element_set_no": 999,
        "meta_rev_at_epoch": 65189,
        "meta_bstar": 0.0022829423,
        "meta_mean_motion_dot": 0.00014769,
        "meta_mean_motion_ddot": 0,
        "tle_line1": "1 31773U 99025CFY 25347.72694209  .00014769  00000+0  22829-2 0  9997",
        "tle_line2": "2 31773  98.9496 338.7474 0039222 175.2061 184.9527 14.72880155651890"
      },
      "geometry": {
        "type": "Point",
        "coordinates": [
          -14.211723402265953,
          -32.2278475482226
        ]
      }
    },
    {
      "type": "Feature",
      "properties": {
        "norad_id": 31776,
        "name": "FENGYUN 1C DEB",
        "group": "fengyun-1c-debris",
        "lat": -27.91529953661571,
        "lon": 53.59487626101522,
        "alt_km": 796.7178690521332,
        "timestamp": "2025-12-14T22:38:41.042098+00:00",
        "meta_object_name": "FENGYUN 1C DEB",
        "meta_object_id": "1999-025CGB",
        "meta_epoch": "2025-12-10T10:30:15.554592",
        "meta_mean_motion": 14.18530208,
        "meta_eccentricity": 0.00545226,
        "meta_inclination": 99.0756,
        "meta_ra_of_asc_node": 44.129,
        "meta_arg_of_pericenter": 341.0208,
        "meta_mean_anomaly": 33.1923,
        "meta_ephemeris_type": 0,
        "meta_classification_type": "U",
        "meta_norad_cat_id": 31776,
        "meta_element_set_no": 999,
        "meta_rev_at_epoch": 94848,
        "meta_bstar": 0.0019236943,
        "meta_mean_motion_dot": 3.993e-05,
        "meta_mean_motion_ddot": 0,
        "tle_line1": "1 31776U 99025CGB 25344.43768003  .00003993  00000+0  19237-2 0  9995",
        "tle_line2": "2 31776  99.0756  44.1290 0054522 341.0208  33.1923 14.18530208948484"
      },
      "geometry": {
        "type": "Point",
        "coordinates": [
          53.59487626101522,
          -27.91529953661571
        ]
      }
    },
    {
      "type": "Feature",
      "properties": {
        "norad_id": 31779,
        "name": "FENGYUN 1C DEB",
        "group": "fengyun-1c-debris",
        "lat": 79.9544056821607,
        "lon": 156.74821860010297,
        "alt_km": 723.0762948595793,
        "timestamp": "2025-12-14T22:38:41.042110+00:00",
        "meta_object_name": "FENGYUN 1C DEB",
        "meta_object_id": "1999-025CGE",
        "meta_epoch": "2025-12-14T00:32:43.617120",
        "meta_mean_motion": 14.41600935,
        "meta_eccentricity": 0.02133095,
        "meta_inclination": 99.2981,
        "meta_ra_of_asc_node": 268.1054,
        "meta_arg_of_pericenter": 179.1279,
        "meta_mean_anomaly": 181.0322,
        "meta_ephemeris_type": 0,
        "meta_classification_type": "U",
        "meta_norad_cat_id": 31779,
        "meta_element_set_no": 999,
        "meta_rev_at_epoch": 97028,
        "meta_bstar": 0.00035493192,
        "meta_mean_motion_dot": 1.454e-05,
        "meta_mean_motion_ddot": 0,
        "tle_line1": "1 31779U 99025CGE 25348.02272705  .00001454  00000+0  35493-3 0  9999",
        "tle_line2": "2 31779  99.2981 268.1054 0213309 179.1279 181.0322 14.41600935970283"
      },
      "geometry": {
        "type": "Point",
        "coordinates": [
          156.74821860010297,
          79.9544056821607
        ]
      }
    },
    {
      "type": "Feature",
      "properties": {
        "norad_id": 31780,
        "name": "FENGYUN 1C DEB",
        "group": "fengyun-1c-debris",
        "lat": -78.34926694258662,
        "lon": -165.61386248266774,
        "alt_km": 736.2187151785556,
        "timestamp": "2025-12-14T22:38:41.042120+00:00",
        "meta_object_name": "FENGYUN 1C DEB",
        "meta_object_id": "1999-025CGF",
        "meta_epoch": "2025-12-13T20:52:33.240288",
        "meta_mean_motion": 14.69546603,
        "meta_eccentricity": 0.01507613,
        "meta_inclination": 99.2856,
        "meta_ra_of_asc_node": 140.6555,
        "meta_arg_of_pericenter": 49.7698,
        "meta_mean_anomaly": 311.6581,
        "meta_ephemeris_type": 0,
        "meta_classification_type": "U",
        "meta_norad_cat_id": 31780,
        "meta_element_set_no": 999,
        "meta_rev_at_epoch": 98514,
        "meta_bstar": 0.00036855008,
        "meta_mean_motion_dot": 2.533e-05,
        "meta_mean_motion_ddot": 0,
        "tle_line1": "1 31780U 99025CGF 25347.86982917  .00002533  00000+0  36855-3 0  9997",
        "tle_line2": "2 31780  99.2856 140.6555 0150761  49.7698 311.6581 14.69546603985145"
      },
      "geometry": {
        "type": "Point",
        "coordinates": [
          -165.61386248266774,
          -78.34926694258662
        ]
      }
    },
    {
      "type": "Feature",
      "properties": {
        "norad_id": 31781,
        "name": "FENGYUN 1C DEB",
        "group": "fengyun-1c-debris",
        "lat": -38.77664596337325,
        "lon": 167.70436186167285,
        "alt_km": 765.1002615779889,
        "timestamp": "2025-12-14T22:38:41.042130+00:00",
        "meta_object_name": "FENGYUN 1C DEB",
        "meta_object_id": "1999-025CGG",
        "meta_epoch": "2025-12-09T06:52:06.193920",
        "meta_mean_motion": 14.12885604,
        "meta_eccentricity": 0.0203697,
        "meta_inclination": 99.4979,
        "meta_ra_of_asc_node": 153.9738,
        "meta_arg_of_pericenter": 283.3787,
        "meta_mean_anomaly": 74.4748,
        "meta_ephemeris_type": 0,
        "meta_classification_type": "U",
        "meta_norad_cat_id": 31781,
        "meta_element_set_no": 999,
        "meta_rev_at_epoch": 68299,
        "meta_bstar": 0.004746,
        "meta_mean_motion_dot": 0.0001072,
        "meta_mean_motion_ddot": 0,
        "tle_line1": "1 31781U 99025CGG 25343.28618280  .00010720  00000+0  47460-2 0  9999",
        "tle_line2": "2 31781  99.4979 153.9738 0203697 283.3787  74.4748 14.12885604682997"
      },
      "geometry": {
        "type": "Point",
        "coordinates": [
          167.70436186167285,
          -38.77664596337325
        ]
      }
    },
    {
      "type": "Feature",
      "properties": {
        "norad_id": 31782,
        "name": "FENGYUN 1C DEB",
        "group": "fengyun-1c-debris",
        "lat": -61.88431358085216,
        "lon": -46.85674103241085,
        "alt_km": 794.6534039316957,
        "timestamp": "2025-12-14T22:38:41.042140+00:00",
        "meta_object_name": "FENGYUN 1C DEB",
        "meta_object_id": "1999-025CGH",
        "meta_epoch": "2025-12-12T05:08:34.345824",
        "meta_mean_motion": 14.36232417,
        "meta_eccentricity": 0.00795156,
        "meta_inclination": 98.9039,
        "meta_ra_of_asc_node": 147.386,
        "meta_arg_of_pericenter": 358.569,
        "meta_mean_anomaly": 182.0654,
        "meta_ephemeris_type": 0,
        "meta_classification_type": "U",
        "meta_norad_cat_id": 31782,
        "meta_element_set_no": 999,
        "meta_rev_at_epoch": 96683,
        "meta_bstar": 0.00055247789,
        "meta_mean_motion_dot": 1.624e-05,
        "meta_mean_motion_ddot": 0,
        "tle_line1": "1 31782U 99025CGH 25346.21428641  .00001624  00000+0  55248-3 0  9993",
        "tle_line2": "2 31782  98.9039 147.3860 0079515 358.5690 182.0654 14.36232417966834"
      },
      "geometry": {
        "type": "Point",
        "coordinates": [
          -46.85674103241085,
          -61.88431358085216
        ]
      }
    },
    {
      "type": "Feature",
      "properties": {
        "norad_id": 31783,
        "name": "FENGYUN 1C DEB",
        "group": "fengyun-1c-debris",
        "lat": -73.23177296529678,
        "lon": 27.66837510332407,
        "alt_km": 906.9681871324701,
        "timestamp": "2025-12-14T22:38:41.042155+00:00",
        "meta_object_name": "FENGYUN 1C DEB",
        "meta_object_id": "1999-025CGJ",
        "meta_epoch": "2025-12-12T23:24:59.164992",
        "meta_mean_motion": 14.08828598,
        "meta_eccentricity": 0.01043112,
        "meta_inclination": 98.6046,
        "meta_ra_of_asc_node": 355.6233,
        "meta_arg_of_pericenter": 49.3124,
        "meta_mean_anomaly": 341.2861,
        "meta_ephemeris_type": 0,
        "meta_classification_type": "U",
        "meta_norad_cat_id": 31783,
        "meta_element_set_no": 999,
        "meta_rev_at_epoch": 89224,
        "meta_bstar": 0.00080731218,
        "meta_mean_motion_dot": 1.424e-05,
        "meta_mean_motion_ddot": 0,
        "tle_line1": "1 31783U 99025CGJ 25346.97568478  .00001424  00000+0  80731-3 0  9993",
        "tle_line2": "2 31783  98.6046 355.6233 0104311  49.3124 341.2861 14.08828598892240"
      },
      "geometry": {
        "type": "Point",
        "coordinates": [
          27.66837510332407,
          -73.23177296529678
        ]
      }
    }
  ]
}